{"type":"FeatureCollection","name":"HKUST(GZ) minimal OSM campus map","bbox":[113.474,22.8855,113.484,22.895],"attribution":"© OpenStreetMap contributors","license":"ODbL-1.0","licenseUrl":"https://www.openstreetmap.org/copyright","source":"https://www.openstreetmap.org/way/894157108","fetchedAt":"2026-08-13T05:57:34.212Z","overpassEndpoint":"local-input","features":[{"type":"Feature","id":"relation/14632285","properties":{"osmType":"relation","osmId":14632285,"featureClass":"building","name":"演讲厅","name:en":"Lecture Halls","building":"university"},"geometry":{"type":"Polygon","coordinates":[[[113.4769652,22.8910979],[113.4769838,22.8910702],[113.4770174,22.891049],[113.4770501,22.8910343],[113.4770899,22.8910311],[113.4771368,22.8910433],[113.4771766,22.8910637],[113.4772094,22.8910955],[113.4772191,22.8911395],[113.4772598,22.8911436],[113.4772996,22.8911476],[113.4773279,22.8911582],[113.4773563,22.8911729],[113.4773837,22.8911745],[113.4774111,22.8911647],[113.4774111,22.8911338],[113.4774049,22.89108],[113.4774155,22.891027],[113.4774456,22.8909789],[113.4774908,22.8909447],[113.4775394,22.8909316],[113.4775978,22.8909414],[113.4776456,22.8909699],[113.4776872,22.8910058],[113.4777261,22.8910498],[113.4777411,22.8910849],[113.4777456,22.8911533],[113.4777332,22.8911998],[113.4777774,22.8913041],[113.4778597,22.8913212],[113.4779216,22.8913653],[113.4779553,22.8913987],[113.4779986,22.8914663],[113.4780269,22.8915405],[113.4780252,22.8915959],[113.4780092,22.8916416],[113.4780455,22.8916652],[113.4780712,22.8917125],[113.4780747,22.8917924],[113.4780508,22.8918617],[113.4780119,22.8919016],[113.4779774,22.8919187],[113.477927,22.8919187],[113.4778854,22.8918878],[113.4778588,22.8918429],[113.4778553,22.8917875],[113.4778712,22.8917264],[113.4778208,22.8917321],[113.4777642,22.891719],[113.4776987,22.8916872],[113.477635,22.8916326],[113.4776022,22.8915796],[113.4775766,22.8915258],[113.4775483,22.89149],[113.4775076,22.8914777],[113.4774571,22.8914835],[113.4774226,22.8915161],[113.4773925,22.8915642],[113.4773651,22.8916025],[113.4773297,22.8916277],[113.4772775,22.8916424],[113.4772218,22.8916465],[113.4771793,22.8916343],[113.4771413,22.8915935],[113.4771014,22.8915421],[113.4770775,22.8914875],[113.4770731,22.8914362],[113.4770775,22.8913865],[113.4770891,22.8913302],[113.4770793,22.8912992],[113.4770568,22.8912719],[113.47702,22.891256],[113.476982,22.8912145],[113.4769599,22.8911615],[113.4769652,22.8910979]]]}},{"type":"Feature","id":"way/1096048403","properties":{"osmType":"way","osmId":1096048403,"featureClass":"building","name":"W1","building":"university","building:levels":"6"},"geometry":{"type":"Polygon","coordinates":[[[113.475635,22.8916243],[113.4766694,22.891335],[113.4767565,22.8913107],[113.4768702,22.8912789],[113.4768361,22.8911843],[113.4767987,22.891081],[113.4767748,22.8909833],[113.476757,22.890885],[113.4765528,22.8909339],[113.476596,22.8910719],[113.4756771,22.8913161],[113.4756852,22.8913419],[113.4756173,22.89136],[113.4756492,22.8914616],[113.475589,22.8914776],[113.475635,22.8916243]]]}},{"type":"Feature","id":"way/1096048404","properties":{"osmType":"way","osmId":1096048404,"featureClass":"building","name":"W2","building":"university","building:levels":"6"},"geometry":{"type":"Polygon","coordinates":[[[113.4758989,22.8920821],[113.4768321,22.8916975],[113.4769253,22.8916612],[113.4770104,22.8916208],[113.4768938,22.8913823],[113.4768462,22.8914021],[113.4768333,22.8913758],[113.4767937,22.8913922],[113.4768005,22.8914061],[113.4767127,22.8914427],[113.4757688,22.8918353],[113.4757895,22.8918777],[113.4757517,22.8918934],[113.4758146,22.8920218],[113.4758601,22.8920029],[113.4758989,22.8920821]]]}},{"type":"Feature","id":"way/1096049211","properties":{"osmType":"way","osmId":1096049211,"featureClass":"building","name":"E2","building":"university","building:levels":"6"},"geometry":{"type":"Polygon","coordinates":[[[113.478044,22.8910649],[113.4778718,22.8908418],[113.4779477,22.8907922],[113.478031,22.8907376],[113.4788871,22.8901766],[113.4790594,22.8903998],[113.478212,22.8909548],[113.4781103,22.8910214],[113.478044,22.8910649]]]}},{"type":"Feature","id":"way/1096049212","properties":{"osmType":"way","osmId":1096049212,"featureClass":"building","name":"E4","building":"university","building:levels":"6"},"geometry":{"type":"Polygon","coordinates":[[[113.478393,22.891887],[113.4783563,22.8917284],[113.4783269,22.8916187],[113.4782934,22.8915352],[113.4783911,22.8915098],[113.4784896,22.8914841],[113.479509,22.8912184],[113.4795802,22.8914952],[113.4786012,22.8917497],[113.478612,22.8917912],[113.4785381,22.8918101],[113.478558,22.8918776],[113.4784887,22.8918907],[113.4784825,22.8918655],[113.478393,22.891887]]]}},{"type":"Feature","id":"way/1096049213","properties":{"osmType":"way","osmId":1096049213,"featureClass":"building","name":"E3","building":"university","building:levels":"6"},"geometry":{"type":"Polygon","coordinates":[[[113.4782463,22.8914451],[113.478221,22.8913804],[113.4781938,22.8913205],[113.4781666,22.8912692],[113.4781278,22.8912007],[113.4782053,22.8911683],[113.4783149,22.8911226],[113.4791726,22.8907647],[113.4791892,22.8907977],[113.4792559,22.8907718],[113.4792731,22.89081],[113.4793107,22.8907989],[113.4793867,22.891002],[113.4784476,22.8913898],[113.4783587,22.8914265],[113.4783098,22.8914467],[113.4783002,22.891426],[113.4782463,22.8914451]]]}},{"type":"Feature","id":"way/1098450388","properties":{"osmType":"way","osmId":1098450388,"featureClass":"building","name":"C2 活动中心","name:en":"Activity Center","building":"university","building:levels":"3"},"geometry":{"type":"Polygon","coordinates":[[[113.4781387,22.889548],[113.4774238,22.8903987],[113.4773986,22.8904333],[113.477361,22.8904563],[113.4773167,22.8904642],[113.4772724,22.890456],[113.4772349,22.8904327],[113.47721,22.890398],[113.4772014,22.8903572],[113.4772104,22.8903165],[113.4772745,22.8902178],[113.4773226,22.8901118],[113.4773538,22.8900005],[113.4773676,22.8898863],[113.4773811,22.8897973],[113.4774098,22.8897115],[113.477453,22.889631],[113.477516,22.8895482],[113.4775874,22.8894714],[113.4776665,22.8894012],[113.4777525,22.8893384],[113.4779604,22.889185],[113.477974,22.8892652],[113.4779993,22.889343],[113.4780356,22.8894169],[113.4780824,22.8894857],[113.4781387,22.889548]]]}},{"type":"Feature","id":"way/1098450389","properties":{"osmType":"way","osmId":1098450389,"featureClass":"building","name":"E1","building":"university","building:levels":"6"},"geometry":{"type":"Polygon","coordinates":[[[113.4775155,22.8905061],[113.4776356,22.8903898],[113.4776896,22.8904423],[113.4777496,22.8903898],[113.4777666,22.8904096],[113.4784151,22.8898377],[113.4784336,22.8898547],[113.4784891,22.8898107],[113.4785153,22.8898377],[113.4785384,22.8898221],[113.4786955,22.8899697],[113.4779332,22.8906337],[113.4778589,22.8906985],[113.4777897,22.8907588],[113.4777365,22.8906999],[113.4776711,22.8906324],[113.4775817,22.8905544],[113.4775155,22.8905061]]]}},{"type":"Feature","id":"way/1098450390","properties":{"osmType":"way","osmId":1098450390,"featureClass":"building","building":"university"},"geometry":{"type":"Polygon","coordinates":[[[113.4779332,22.8906337],[113.478031,22.8907376],[113.4779477,22.8907922],[113.4778589,22.8906985],[113.4779332,22.8906337]]]}},{"type":"Feature","id":"way/1098450391","properties":{"osmType":"way","osmId":1098450391,"featureClass":"building","building":"university"},"geometry":{"type":"Polygon","coordinates":[[[113.478212,22.8909548],[113.4783149,22.8911226],[113.4782053,22.8911683],[113.4781103,22.8910214],[113.478212,22.8909548]]]}},{"type":"Feature","id":"way/1098450392","properties":{"osmType":"way","osmId":1098450392,"featureClass":"building","building":"university"},"geometry":{"type":"Polygon","coordinates":[[[113.4783911,22.8915098],[113.4783587,22.8914265],[113.4784476,22.8913898],[113.4784896,22.8914841],[113.4783911,22.8915098]]]}},{"type":"Feature","id":"way/1098450394","properties":{"osmType":"way","osmId":1098450394,"featureClass":"building","name":"图书馆","name:en":"Library","ref":"C7","building":"university"},"geometry":{"type":"Polygon","coordinates":[[[113.4775892,22.8924952],[113.4777324,22.8926423],[113.4778218,22.8925684],[113.4779108,22.8925032],[113.4780039,22.8924431],[113.4781007,22.8923882],[113.478201,22.8923388],[113.4783042,22.892295],[113.4784101,22.892257],[113.4785245,22.8922231],[113.4784587,22.892035],[113.4783383,22.8920707],[113.4782203,22.892113],[113.4781054,22.8921618],[113.4779938,22.8922168],[113.477886,22.8922779],[113.4777824,22.8923448],[113.4776833,22.8924173],[113.4775892,22.8924952]]]}},{"type":"Feature","id":"way/1098450395","properties":{"osmType":"way","osmId":1098450395,"featureClass":"building","building":"university"},"geometry":{"type":"Polygon","coordinates":[[[113.4767127,22.8914427],[113.4766694,22.891335],[113.4767565,22.8913107],[113.4767937,22.8913922],[113.4768005,22.8914061],[113.4767127,22.8914427]]]}},{"type":"Feature","id":"way/1098450396","properties":{"osmType":"way","osmId":1098450396,"featureClass":"building","building":"university"},"geometry":{"type":"Polygon","coordinates":[[[113.4769384,22.8918674],[113.4768812,22.8917834],[113.4768321,22.8916975],[113.4769253,22.8916612],[113.4769727,22.8917363],[113.4770263,22.8918085],[113.4769384,22.8918674]]]}},{"type":"Feature","id":"way/1098450397","properties":{"osmType":"way","osmId":1098450397,"featureClass":"building","name":"W4","building":"university","building:levels":"6"},"geometry":{"type":"Polygon","coordinates":[[[113.4776111,22.8923063],[113.4774807,22.8921973],[113.4773926,22.8921187],[113.4773312,22.89205],[113.4772581,22.8921149],[113.4771845,22.8921805],[113.4764222,22.8928582],[113.476646,22.8930542],[113.4773775,22.892403],[113.477411,22.8924324],[113.4774659,22.8923831],[113.4775192,22.8924329],[113.4775664,22.8923844],[113.4775458,22.8923668],[113.4776111,22.8923063]]]}},{"type":"Feature","id":"way/1098450398","properties":{"osmType":"way","osmId":1098450398,"featureClass":"building","name":"W3","building":"university","building:levels":"6"},"geometry":{"type":"Polygon","coordinates":[[[113.4772659,22.8919852],[113.4770919,22.8917646],[113.4770263,22.8918085],[113.4769384,22.8918674],[113.4761583,22.8923897],[113.4762065,22.8924508],[113.4761532,22.8924865],[113.4762142,22.8925637],[113.4761845,22.8925836],[113.4762639,22.8926841],[113.4771172,22.8921119],[113.4772001,22.8920563],[113.4772305,22.8920359],[113.4772166,22.8920183],[113.4772659,22.8919852]]]}},{"type":"Feature","id":"way/1098450399","properties":{"osmType":"way","osmId":1098450399,"featureClass":"building","building":"university"},"geometry":{"type":"Polygon","coordinates":[[[113.4772001,22.8920563],[113.4772581,22.8921149],[113.4771845,22.8921805],[113.4771172,22.8921119],[113.4772001,22.8920563]]]}},{"type":"Feature","id":"way/1098450403","properties":{"osmType":"way","osmId":1098450403,"featureClass":"building","name":"宿舍1A栋","name:en":"Block 1A","building":"dormitory","building:levels":"8"},"geometry":{"type":"Polygon","coordinates":[[[113.4784244,22.8893476],[113.4784095,22.8893645],[113.4784739,22.889413],[113.4786558,22.889208],[113.4788287,22.8890133],[113.4790114,22.8891482],[113.4790962,22.8891034],[113.4790196,22.8890456],[113.4790347,22.8890287],[113.4788389,22.8888812],[113.4788096,22.8889142],[113.4787838,22.8888948],[113.4787467,22.8889365],[113.4787048,22.8889049],[113.4783569,22.8892968],[113.4784244,22.8893476]]]}},{"type":"Feature","id":"way/1098450407","properties":{"osmType":"way","osmId":1098450407,"featureClass":"building","building":"university","building:levels":"13"},"geometry":{"type":"Polygon","coordinates":[[[113.4803397,22.8879903],[113.4803957,22.8879606],[113.480765,22.8877648],[113.4808417,22.8877242],[113.4808194,22.8876885],[113.4807887,22.8876394],[113.4807589,22.8876552],[113.4807351,22.8876171],[113.4802406,22.8878793],[113.4802736,22.8879322],[113.480296,22.8879203],[113.4803229,22.8879635],[113.4803397,22.8879903]]]}},{"type":"Feature","id":"way/1098450410","properties":{"osmType":"way","osmId":1098450410,"featureClass":"building","name":"体育馆","name:en":"Gymnasium","building":"gym"},"geometry":{"type":"Polygon","coordinates":[[[113.4803026,22.8891603],[113.4803166,22.8890958],[113.4803516,22.8890312],[113.480403,22.8889796],[113.4804731,22.8889366],[113.4805735,22.8889],[113.4806902,22.8888742],[113.4807906,22.8888677],[113.480884,22.8888677],[113.4809774,22.8888634],[113.4810708,22.8888505],[113.4811385,22.8888376],[113.4812203,22.8888032],[113.4812856,22.8887666],[113.481379,22.8887064],[113.4814771,22.8886311],[113.4815635,22.8885386],[113.4816265,22.8884354],[113.4816686,22.8883256],[113.4816989,22.888188],[113.4816943,22.8880955],[113.4816826,22.8880525],[113.4817433,22.8880309],[113.4818227,22.8880094],[113.4819114,22.8879987],[113.4820328,22.8880073],[113.4821286,22.8880352],[113.4822103,22.8880761],[113.4822733,22.8881127],[113.4823084,22.8881579],[113.4822407,22.8883256],[113.4821636,22.8884934],[113.4820935,22.8886161],[113.4819651,22.8887968],[113.4818577,22.8889387],[113.481741,22.8890764],[113.4816195,22.8892012],[113.4814981,22.889298],[113.4813674,22.8893819],[113.4812109,22.8894507],[113.4810428,22.8895002],[113.4808747,22.8895281],[113.4807042,22.889526],[113.4805524,22.8894959],[113.480431,22.8894507],[113.4803516,22.8893776],[113.4803049,22.8892829],[113.4802944,22.8892173],[113.4803026,22.8891603]]]}},{"type":"Feature","id":"way/1098450434","properties":{"osmType":"way","osmId":1098450434,"featureClass":"building","name":"宿舍5A栋","name:en":"Dormitory Block 5A","building":"dormitory"},"geometry":{"type":"Polygon","coordinates":[[[113.4809782,22.8879962],[113.4810144,22.887977],[113.4809181,22.8878229],[113.4809574,22.8878021],[113.4808697,22.8876618],[113.4808194,22.8876885],[113.4808417,22.8877242],[113.480765,22.8877648],[113.4808108,22.8878381],[113.4807927,22.8878477],[113.4809436,22.8880892],[113.4810132,22.8880523],[113.4809782,22.8879962]]]}},{"type":"Feature","id":"way/1098450435","properties":{"osmType":"way","osmId":1098450435,"featureClass":"building","name":"宿舍5B栋","name:en":"Dormitory Block 5B","building":"dormitory","building:levels":"13"},"geometry":{"type":"Polygon","coordinates":[[[113.4809436,22.8880892],[113.4810086,22.8881933],[113.4810626,22.8881647],[113.4810831,22.8881975],[113.481109,22.8881838],[113.4811343,22.8882243],[113.4813319,22.8881195],[113.4813093,22.8880835],[113.4813458,22.8880641],[113.4813684,22.8881002],[113.4816714,22.8879395],[113.4816391,22.8878877],[113.481617,22.8878995],[113.4815668,22.8878191],[113.4814862,22.8878618],[113.4811153,22.8880584],[113.4810871,22.8880131],[113.4810132,22.8880523],[113.4809436,22.8880892]]]}},{"type":"Feature","id":"way/1098450436","properties":{"osmType":"way","osmId":1098450436,"featureClass":"building","name":"宿舍5C栋","name:en":"Dormitory Block 5C","building":"dormitory","building:levels":"13"},"geometry":{"type":"Polygon","coordinates":[[[113.481928,22.8878313],[113.482087,22.8877836],[113.4820189,22.8875907],[113.4819728,22.8876045],[113.4819559,22.8875566],[113.4820019,22.8875428],[113.4819242,22.8873228],[113.4818624,22.8873414],[113.4818529,22.8873147],[113.4818233,22.8873236],[113.4818073,22.8872783],[113.4813258,22.8874228],[113.4813541,22.8875028],[113.4813849,22.8874936],[113.4814067,22.8875551],[113.4814311,22.8875478],[113.4815962,22.8874983],[113.4815826,22.88746],[113.4816272,22.8874467],[113.4816407,22.8874849],[113.4817898,22.8874402],[113.481928,22.8878313]]]}},{"type":"Feature","id":"way/1098450437","properties":{"osmType":"way","osmId":1098450437,"featureClass":"building","name":"宿舍2A栋","name:en":"Dormitory Block 2A","building":"dormitory","building:levels":"8"},"geometry":{"type":"Polygon","coordinates":[[[113.4783405,22.8881502],[113.4783014,22.8881177],[113.4778836,22.8885453],[113.4779329,22.8885862],[113.477958,22.8885605],[113.4779842,22.8886024],[113.47793,22.8886311],[113.4780333,22.8887967],[113.4781681,22.8887253],[113.4780727,22.8885724],[113.4783801,22.8882578],[113.4785359,22.8883871],[113.4785921,22.8883574],[113.4785788,22.8883361],[113.4786017,22.888324],[113.4785642,22.8882929],[113.4786059,22.8882503],[113.478435,22.8881085],[113.4783933,22.8881512],[113.4783636,22.8881265],[113.4783405,22.8881502]]]}},{"type":"Feature","id":"way/1098450438","properties":{"osmType":"way","osmId":1098450438,"featureClass":"building","name":"宿舍2B栋","name:en":"Dormitory Block 2B","building":"dormitory","building:levels":"15"},"geometry":{"type":"Polygon","coordinates":[[[113.4785567,22.8884204],[113.4785958,22.8883997],[113.4786402,22.8884709],[113.4791815,22.8881844],[113.4791612,22.8881519],[113.479189,22.8881372],[113.4791639,22.888097],[113.4792131,22.888071],[113.4789846,22.8877047],[113.4789237,22.887737],[113.4789351,22.8877552],[113.4788573,22.8877963],[113.4790413,22.8880913],[113.4786017,22.888324],[113.4785788,22.8883361],[113.4785921,22.8883574],[113.4785359,22.8883871],[113.4785567,22.8884204]]]}},{"type":"Feature","id":"way/1098450439","properties":{"osmType":"way","osmId":1098450439,"featureClass":"building","name":"宿舍4A栋","name:en":"Dormitory Block 4A","building":"dormitory","building:levels":"13"},"geometry":{"type":"Polygon","coordinates":[[[113.4796328,22.8877463],[113.4794718,22.8874888],[113.4794112,22.887521],[113.4794342,22.8875577],[113.4793506,22.887602],[113.4795368,22.8878998],[113.479592,22.8878705],[113.479606,22.8878928],[113.4796283,22.887881],[113.4796466,22.8879104],[113.4800843,22.8876782],[113.4799003,22.8873838],[113.479842,22.8872905],[113.4797819,22.8873224],[113.4799437,22.8875814],[113.4796328,22.8877463]]]}},{"type":"Feature","id":"way/1098450440","properties":{"osmType":"way","osmId":1098450440,"featureClass":"building","name":"宿舍4B栋","name:en":"Dormitory Block 4B","building":"dormitory","building:levels":"13"},"geometry":{"type":"Polygon","coordinates":[[[113.4799003,22.8873838],[113.4799601,22.8873521],[113.4799848,22.8873915],[113.4804251,22.8871579],[113.48038,22.8870857],[113.4804098,22.8870699],[113.480372,22.8870094],[113.479842,22.8872905],[113.4799003,22.8873838]]]}},{"type":"Feature","id":"way/1098450441","properties":{"osmType":"way","osmId":1098450441,"featureClass":"building","name":"宿舍6A栋","name:en":"Dormitory Block 6A","building":"dormitory","building:levels":"13"},"geometry":{"type":"Polygon","coordinates":[[[113.4806599,22.8874017],[113.4809117,22.8872681],[113.4808913,22.8872354],[113.4809276,22.8872161],[113.480948,22.8872488],[113.4811247,22.887155],[113.481042,22.8870227],[113.4809807,22.8870553],[113.4809666,22.8870328],[113.4805632,22.8872469],[113.4806599,22.8874017]]]}},{"type":"Feature","id":"way/1098450442","properties":{"osmType":"way","osmId":1098450442,"featureClass":"building","name":"宿舍6B栋","name:en":"Dormitory Block 6B","building":"dormitory","building:levels":"13"},"geometry":{"type":"Polygon","coordinates":[[[113.480912,22.8868382],[113.4809702,22.8868073],[113.4809958,22.8868483],[113.4814309,22.8866175],[113.4813875,22.8865481],[113.4814277,22.8865269],[113.4813867,22.8864614],[113.4808533,22.8867444],[113.480912,22.8868382]]]}},{"type":"Feature","id":"way/1098450443","properties":{"osmType":"way","osmId":1098450443,"featureClass":"building","name":"宿舍6C栋","name:en":"Dormitory Block 6C","building":"dormitory","building:levels":"13","layer":"1"},"geometry":{"type":"Polygon","coordinates":[[[113.4817946,22.8867698],[113.4818848,22.8866997],[113.4819,22.8867163],[113.4821025,22.8865591],[113.4819783,22.8864233],[113.4817088,22.8866326],[113.4817015,22.8866209],[113.4815537,22.8866992],[113.4816468,22.8868482],[113.4817946,22.8867698]]]}},{"type":"Feature","id":"way/1098450450","properties":{"osmType":"way","osmId":1098450450,"featureClass":"building","name":"教职工宿舍","building":"university","building:levels":"13"},"geometry":{"type":"Polygon","coordinates":[[[113.4796995,22.8934818],[113.480014,22.8933095],[113.4800321,22.8933376],[113.4801069,22.8932966],[113.4801728,22.8933985],[113.4800234,22.8934804],[113.4800528,22.893526],[113.4798725,22.8936248],[113.4798489,22.8935884],[113.4796911,22.8936749],[113.4796325,22.8935841],[113.4797307,22.8935302],[113.4796995,22.8934818]]]}},{"type":"Feature","id":"way/1098450451","properties":{"osmType":"way","osmId":1098450451,"featureClass":"building","name":"教职工宿舍","building":"university","building:levels":"13"},"geometry":{"type":"Polygon","coordinates":[[[113.48023,22.8932458],[113.4803346,22.893189],[113.4803792,22.8932587],[113.4804263,22.8932332],[113.4806018,22.8935077],[113.4805628,22.8935288],[113.4806167,22.8936132],[113.480504,22.8936744],[113.48023,22.8932458]]]}},{"type":"Feature","id":"way/1098450452","properties":{"osmType":"way","osmId":1098450452,"featureClass":"building","name":"教职工宿舍","building":"university","building:levels":"13"},"geometry":{"type":"Polygon","coordinates":[[[113.4807621,22.892923],[113.4810418,22.8927864],[113.4810598,22.8928176],[113.4811603,22.8927685],[113.4812217,22.8928751],[113.4810715,22.8929485],[113.4810902,22.8929809],[113.4809021,22.8930728],[113.4808674,22.8930125],[113.4808254,22.8930331],[113.4807621,22.892923]]]}},{"type":"Feature","id":"way/1098450453","properties":{"osmType":"way","osmId":1098450453,"featureClass":"building","name":"教职工宿舍","building":"university","building:levels":"13"},"geometry":{"type":"Polygon","coordinates":[[[113.4816656,22.8926888],[113.4816939,22.8926883],[113.4817221,22.8926914],[113.4817495,22.8926978],[113.4817768,22.892708],[113.4818759,22.8927579],[113.4817452,22.8929781],[113.481865,22.8930384],[113.4820611,22.8927078],[113.4818353,22.8925941],[113.4817921,22.892578],[113.481747,22.8925674],[113.4817007,22.8925625],[113.4816541,22.8925632],[113.481608,22.8925696],[113.4815633,22.8925817],[113.4813291,22.8926961],[113.4813931,22.8928072],[113.4815332,22.8927387],[113.4815507,22.8927692],[113.4816325,22.8927293],[113.4816714,22.8927238],[113.4816656,22.8926888]]]}},{"type":"Feature","id":"way/1098450454","properties":{"osmType":"way","osmId":1098450454,"featureClass":"building","name":"教职工宿舍","building":"university","building:levels":"13"},"geometry":{"type":"Polygon","coordinates":[[[113.4812671,22.8934622],[113.4813351,22.893425],[113.4814,22.8933831],[113.4813765,22.8933545],[113.4814356,22.89331],[113.481491,22.8932617],[113.4815424,22.8932097],[113.4815722,22.8932329],[113.481621,22.8931754],[113.4816651,22.8931148],[113.4817779,22.8931856],[113.4817204,22.8932633],[113.4816559,22.8933363],[113.4815848,22.8934039],[113.4815078,22.8934657],[113.4814253,22.8935212],[113.4813379,22.8935699],[113.4812671,22.8934622]]]}},{"type":"Feature","id":"way/1098450455","properties":{"osmType":"way","osmId":1098450455,"featureClass":"building","name":"教职工宿舍","building":"university","building:levels":"13"},"geometry":{"type":"Polygon","coordinates":[[[113.4809238,22.8932382],[113.4809889,22.8933447],[113.4810498,22.893313],[113.4811652,22.8935015],[113.4811042,22.8935331],[113.48119,22.8936734],[113.4810721,22.8937346],[113.4810164,22.8936435],[113.4809835,22.8936606],[113.4808234,22.8933991],[113.4808714,22.8933742],[113.4808209,22.8932917],[113.4809238,22.8932382]]]}},{"type":"Feature","id":"way/1098450456","properties":{"osmType":"way","osmId":1098450456,"featureClass":"building","name":"教职工宿舍","building":"university","building:levels":"13"},"geometry":{"type":"Polygon","coordinates":[[[113.4800442,22.8939211],[113.4801722,22.8939137],[113.4802983,22.8938949],[113.4804202,22.8938575],[113.4805178,22.8938125],[113.4806296,22.893747],[113.4807759,22.8936683],[113.480843,22.8937826],[113.4807089,22.89385],[113.4807239,22.8938765],[113.4805804,22.8939555],[113.4805666,22.8939293],[113.4804721,22.8939655],[113.4804751,22.8939904],[113.480347,22.8940279],[113.4801905,22.8940485],[113.4800543,22.8940541],[113.4800442,22.8939211]]]}},{"type":"Feature","id":"way/1098450457","properties":{"osmType":"way","osmId":1098450457,"featureClass":"building","building":"university","building:levels":"2"},"geometry":{"type":"Polygon","coordinates":[[[113.4809112,22.894144],[113.4809251,22.8942795],[113.4808216,22.8942886],[113.4808265,22.8943366],[113.4807234,22.8943456],[113.4807281,22.8943904],[113.4806222,22.8943997],[113.4806264,22.8944409],[113.4804915,22.8944527],[113.4804778,22.8943201],[113.4805767,22.8943115],[113.4805723,22.8942682],[113.4806875,22.8942582],[113.4806836,22.8942212],[113.4807926,22.8942117],[113.4807867,22.8941549],[113.4809112,22.894144]]]}},{"type":"Feature","id":"way/1098450458","properties":{"osmType":"way","osmId":1098450458,"featureClass":"building","building":"university","building:levels":"2"},"geometry":{"type":"Polygon","coordinates":[[[113.4804021,22.8943838],[113.480365,22.8944932],[113.4802664,22.8944648],[113.4802484,22.894518],[113.4801561,22.8944914],[113.4801416,22.8945341],[113.4800459,22.8945065],[113.4800325,22.8945458],[113.4798982,22.8945071],[113.4799412,22.8943806],[113.4800432,22.89441],[113.4800564,22.8943713],[113.4801595,22.894401],[113.4801737,22.8943592],[113.4802743,22.8943882],[113.480287,22.8943506],[113.4804021,22.8943838]]]}},{"type":"Feature","id":"way/1098450459","properties":{"osmType":"way","osmId":1098450459,"featureClass":"building","building":"grandstand"},"geometry":{"type":"Polygon","coordinates":[[[113.481366,22.8902805],[113.4814145,22.8902046],[113.4814565,22.8901255],[113.4814918,22.8900436],[113.4815202,22.8899596],[113.4815415,22.8898737],[113.4815557,22.8897866],[113.4815626,22.8896988],[113.4815621,22.8896107],[113.4815575,22.8895926],[113.4815471,22.8895766],[113.481532,22.8895642],[113.4815135,22.8895567],[113.4814934,22.8895546],[113.4814736,22.8895583],[113.4814559,22.8895673],[113.4814421,22.8895809],[113.4813936,22.8896568],[113.4813516,22.8897359],[113.4813163,22.8898177],[113.4812878,22.8899018],[113.4812665,22.8899877],[113.4812524,22.8900748],[113.4812455,22.8901626],[113.4812459,22.8902507],[113.4812505,22.8902688],[113.4812609,22.8902848],[113.481276,22.8902971],[113.4812945,22.8903047],[113.4813146,22.8903067],[113.4813344,22.8903031],[113.4813521,22.890294],[113.481366,22.8902805]]]}},{"type":"Feature","id":"way/1098962787","properties":{"osmType":"way","osmId":1098962787,"featureClass":"building","name":"数据中心 智算中心","building":"university"},"geometry":{"type":"Polygon","coordinates":[[[113.4812623,22.8922714],[113.4811251,22.8917705],[113.481439,22.8916975],[113.4815762,22.8921984],[113.4812623,22.8922714]]]}},{"type":"Feature","id":"way/1098962788","properties":{"osmType":"way","osmId":1098962788,"featureClass":"building","name":"消防中心","building":"university"},"geometry":{"type":"Polygon","coordinates":[[[113.4823108,22.8913626],[113.4825924,22.8913875],[113.4826353,22.8909748],[113.4823537,22.89095],[113.4823108,22.8913626]]]}},{"type":"Feature","id":"way/1098962789","properties":{"osmType":"way","osmId":1098962789,"featureClass":"building","name":"能源中心","building":"university"},"geometry":{"type":"Polygon","coordinates":[[[113.4816791,22.8916351],[113.4818351,22.8914931],[113.4817822,22.8914437],[113.4820287,22.8912194],[113.4825402,22.8916965],[113.4822937,22.8919209],[113.4821989,22.8918324],[113.4820429,22.8919743],[113.4816791,22.8916351]]]}},{"type":"Feature","id":"way/1154868988","properties":{"osmType":"way","osmId":1154868988,"featureClass":"building","name":"行政大楼","name:en":"Administration Building","building":"university","building:levels":"7"},"geometry":{"type":"Polygon","coordinates":[[[113.4767177,22.8903077],[113.4767051,22.8902737],[113.4767501,22.8902565],[113.4767923,22.8902341],[113.4768311,22.890207],[113.4768659,22.8901755],[113.4768959,22.8901402],[113.4769208,22.8901016],[113.4769556,22.890118],[113.4769795,22.8900659],[113.4769948,22.8900111],[113.4770013,22.8899549],[113.4769989,22.8898983],[113.4769875,22.8898428],[113.4769674,22.8897893],[113.476939,22.8897392],[113.4771101,22.8896557],[113.4771443,22.8897155],[113.4771704,22.8897787],[113.477188,22.8898443],[113.4771967,22.8899114],[113.4771966,22.889979],[113.4771875,22.8900461],[113.4771696,22.8901117],[113.4771432,22.8901748],[113.4771087,22.8902345],[113.4771422,22.8902531],[113.4770945,22.8903165],[113.4770383,22.8903738],[113.4769747,22.8904239],[113.4769046,22.8904662],[113.4768292,22.8904999],[113.4767497,22.8905244],[113.4766675,22.8905393],[113.4766624,22.8905036],[113.4765873,22.8905087],[113.476512,22.8905052],[113.4764378,22.8904932],[113.4763658,22.8904727],[113.4762971,22.8904442],[113.4762328,22.8904081],[113.4761738,22.8903649],[113.4761211,22.8903153],[113.4760754,22.8902601],[113.4762292,22.8901481],[113.4762658,22.8901944],[113.4763095,22.8902351],[113.4763593,22.8902694],[113.4764141,22.8902964],[113.4764727,22.8903155],[113.4765337,22.8903264],[113.4765958,22.8903287],[113.4766576,22.8903224],[113.4767177,22.8903077]]]}},{"type":"Feature","id":"way/1526136008","properties":{"osmType":"way","osmId":1526136008,"featureClass":"building","building":"university"},"geometry":{"type":"Polygon","coordinates":[[[113.4811247,22.887155],[113.4813957,22.8870113],[113.481313,22.886879],[113.481042,22.8870227],[113.4811247,22.887155]]]}},{"type":"Feature","id":"way/1526136009","properties":{"osmType":"way","osmId":1526136009,"featureClass":"building","building":"university"},"geometry":{"type":"Polygon","coordinates":[[[113.4784739,22.889413],[113.4786501,22.8895457],[113.4788128,22.8894596],[113.4786558,22.889208],[113.4784739,22.889413]]]}},{"type":"Feature","id":"way/1526136016","properties":{"osmType":"way","osmId":1526136016,"featureClass":"building","building":"university"},"geometry":{"type":"Polygon","coordinates":[[[113.4814963,22.8877324],[113.4814311,22.8875478],[113.4814067,22.8875551],[113.4813849,22.8874936],[113.4813541,22.8875028],[113.481361,22.8875223],[113.4813205,22.8875345],[113.4813306,22.887563],[113.4813139,22.887568],[113.4813979,22.8878057],[113.4814146,22.8878007],[113.481426,22.8878329],[113.4814712,22.8878193],[113.4814862,22.8878618],[113.4815668,22.8878191],[113.4815323,22.8877216],[113.4814963,22.8877324]]]}},{"type":"Feature","id":"way/1526136017","properties":{"osmType":"way","osmId":1526136017,"featureClass":"building","name":"宿舍3栋","name:en":"Dormitory Block 3","building":"dormitory","building:levels":"13"},"geometry":{"type":"Polygon","coordinates":[[[113.4805644,22.8883404],[113.4805114,22.8882555],[113.4804752,22.8882747],[113.4803789,22.8881206],[113.4803397,22.8881415],[113.480252,22.8880011],[113.4803229,22.8879635],[113.4803397,22.8879903],[113.4803957,22.8879606],[113.480447,22.8880428],[113.4804652,22.8880331],[113.4806341,22.8883035],[113.4806578,22.8882909],[113.4807002,22.8883587],[113.4807172,22.8883497],[113.4807534,22.8884075],[113.4802123,22.8886944],[113.4801919,22.8886618],[113.4801642,22.8886765],[113.480139,22.8886363],[113.48009,22.8886623],[113.4800269,22.8885613],[113.4799713,22.8884723],[113.4800163,22.8884485],[113.479994,22.8884128],[113.4799492,22.8884366],[113.4798322,22.8882493],[113.4799707,22.8881759],[113.4801656,22.8884878],[113.4801957,22.888536],[113.4805644,22.8883404]]]}},{"type":"Feature","id":"way/1526136018","properties":{"osmType":"way","osmId":1526136018,"featureClass":"building","name":"宿舍1B栋","name:en":"Dormitory Block 1B","building":"dormitory","building:levels":"13"},"geometry":{"type":"Polygon","coordinates":[[[113.4794596,22.8888804],[113.4794739,22.8889034],[113.4790962,22.8891034],[113.4790114,22.8891482],[113.4790537,22.889216],[113.4790366,22.889225],[113.4790728,22.889283],[113.4796141,22.8889965],[113.4795939,22.888964],[113.4796217,22.8889493],[113.4795966,22.8889091],[113.4796457,22.8888831],[113.4795272,22.888693],[113.4794823,22.8887168],[113.47946,22.8886812],[113.4795049,22.8886574],[113.479388,22.88847],[113.4792494,22.8885434],[113.479444,22.8888555],[113.4794596,22.8888804]]]}},{"type":"Feature","id":"node/10740248584","properties":{"osmType":"node","osmId":10740248584,"featureClass":"entrance","ref":"5","entrance":"yes"},"geometry":{"type":"Point","coordinates":[113.4838004,22.8896906]}},{"type":"Feature","id":"node/10740248603","properties":{"osmType":"node","osmId":10740248603,"featureClass":"entrance","name:en":"entrance 3","ref":"3","entrance":"yes"},"geometry":{"type":"Point","coordinates":[113.479091,22.8874504]}},{"type":"Feature","id":"node/10763132989","properties":{"osmType":"node","osmId":10763132989,"featureClass":"entrance","ref":"2","access":"permissive","entrance":"main"},"geometry":{"type":"Point","coordinates":[113.4776815,22.8883663]}},{"type":"Feature","id":"node/11073090125","properties":{"osmType":"node","osmId":11073090125,"featureClass":"entrance","ref":"2","access":"permissive","entrance":"main"},"geometry":{"type":"Point","coordinates":[113.477586,22.8884048]}},{"type":"Feature","id":"node/11073090164","properties":{"osmType":"node","osmId":11073090164,"featureClass":"entrance","ref":"1","entrance":"main"},"geometry":{"type":"Point","coordinates":[113.4760112,22.8891642]}},{"type":"Feature","id":"node/11073090165","properties":{"osmType":"node","osmId":11073090165,"featureClass":"entrance","ref":"1","entrance":"main"},"geometry":{"type":"Point","coordinates":[113.4761253,22.889114]}},{"type":"Feature","id":"way/1092948996","properties":{"osmType":"way","osmId":1092948996,"featureClass":"road","name":"笃学路","name:en":"Duxue Road","highway":"tertiary","osmNodeIds":[10009636352,10775863263,10775863264,10775863265,10775863266,10740248512]},"geometry":{"type":"LineString","coordinates":[[113.4747103,22.8896437],[113.4744212,22.8897999],[113.4742215,22.8898783],[113.4739826,22.8899678],[113.4738672,22.889997],[113.4738065,22.8899917]]}},{"type":"Feature","id":"way/1092948997","properties":{"osmType":"way","osmId":1092948997,"featureClass":"road","name":"笃学路","name:en":"Duxue Road","highway":"tertiary","bridge":"yes","layer":"1","osmNodeIds":[10009636352,10009636351]},"geometry":{"type":"LineString","coordinates":[[113.4747103,22.8896437],[113.4752461,22.8893529]]}},{"type":"Feature","id":"way/1098450445","properties":{"osmType":"way","osmId":1098450445,"featureClass":"road","name":"内八路","highway":"service","osmNodeIds":[10057722423,11073090130,10057722424,11073090131,12821543352,10740248757,10057722425]},"geometry":{"type":"LineString","coordinates":[[113.4819301,22.887114],[113.4810922,22.8873718],[113.4808905,22.8874338],[113.4806692,22.8875341],[113.4795035,22.8881547],[113.4779896,22.8889606],[113.4767356,22.8896464]]}},{"type":"Feature","id":"way/1098450446","properties":{"osmType":"way","osmId":1098450446,"featureClass":"road","highway":"service","osmNodeIds":[10057722440,10057722441,10057722442,10057722443,10057722426,10057722427,10057722428,10057722429,13909959263,10057722430,13909959262,10057722435,10057722436,10057722437,10057722438,10057722431,10740248625,10057722425,10057722433,10057722434,11073090161,10775863259,10057722439,11073090163,10057722440]},"geometry":{"type":"LineString","coordinates":[[113.4762813,22.8897431],[113.476241,22.8898246],[113.476228,22.8899134],[113.4762418,22.8899976],[113.47628,22.890075],[113.4763398,22.8901399],[113.4764166,22.8901872],[113.4765045,22.8902134],[113.4765968,22.8902164],[113.4766865,22.890196],[113.4767668,22.8901538],[113.4768314,22.890093],[113.4768755,22.8900182],[113.4768957,22.8899352],[113.4768905,22.8898502],[113.4768602,22.8897698],[113.4768073,22.8897001],[113.4767356,22.8896464],[113.476648,22.8896121],[113.4765534,22.889602],[113.4764596,22.8896168],[113.4764188,22.8896317],[113.4763804,22.8896514],[113.4763453,22.8896756],[113.4762813,22.8897431]]}},{"type":"Feature","id":"way/1154868935","properties":{"osmType":"way","osmId":1154868935,"featureClass":"road","highway":"tertiary_link","surface":"asphalt","osmNodeIds":[10740224602,10740224603,10740224604,10740248505,10740248506,10740248507,10740248508,10740248509,10740248510]},"geometry":{"type":"LineString","coordinates":[[113.4811161,22.8862093],[113.4812355,22.8860482],[113.4812541,22.8860103],[113.4812636,22.8859738],[113.4812554,22.8859258],[113.4812412,22.8858774],[113.4812191,22.8858383],[113.4811727,22.8857959],[113.4810457,22.8857427]]}},{"type":"Feature","id":"way/1154868938","properties":{"osmType":"way","osmId":1154868938,"featureClass":"road","name":"规划一路","highway":"tertiary","osmNodeIds":[10740248521,10740248797,10740248531,10740248533,10740248532]},"geometry":{"type":"LineString","coordinates":[[113.4804484,22.8957345],[113.4836012,22.8942696],[113.4852355,22.893517],[113.485621,22.8933368],[113.4858439,22.8932338]]}},{"type":"Feature","id":"way/1154868946","properties":{"osmType":"way","osmId":1154868946,"featureClass":"road","highway":"service","osmNodeIds":[10740248577,10740248578,10740248579,10740248580,10740248581,10740248563,10740248564,10740248565,10740248566,10740248572,10740248573,10740248574,10740248575,10740248576,10740248567,10740248568,10740248569,10740248570,10740248571,10740248577]},"geometry":{"type":"LineString","coordinates":[[113.4828764,22.8904124],[113.4828667,22.890446],[113.4828451,22.8904746],[113.4828142,22.8904946],[113.4827777,22.8905036],[113.4827401,22.8905006],[113.4827094,22.8904881],[113.4826842,22.8904676],[113.4826671,22.890441],[113.4826596,22.8904108],[113.4826625,22.8903799],[113.4826755,22.8903513],[113.4826973,22.8903278],[113.4827259,22.8903115],[113.4827692,22.8903007],[113.4827961,22.890307],[113.4828303,22.8903217],[113.4828571,22.8903463],[113.4828731,22.8903778],[113.4828764,22.8904124]]}},{"type":"Feature","id":"way/1154868947","properties":{"osmType":"way","osmId":1154868947,"featureClass":"road","highway":"service","osmNodeIds":[10740248583,10740248584]},"geometry":{"type":"LineString","coordinates":[[113.4833835,22.8899423],[113.4838004,22.8896906]]}},{"type":"Feature","id":"way/1154868948","properties":{"osmType":"way","osmId":1154868948,"featureClass":"road","highway":"service","osmNodeIds":[11073090121,10740248587,10740248585,10740248584]},"geometry":{"type":"LineString","coordinates":[[113.4847866,22.8893392],[113.4845555,22.8894301],[113.484084,22.8896221],[113.4838004,22.8896906]]}},{"type":"Feature","id":"way/1154868949","properties":{"osmType":"way","osmId":1154868949,"featureClass":"road","highway":"service","osmNodeIds":[10740248584,10740248586,10068169535,11073090122]},"geometry":{"type":"LineString","coordinates":[[113.4838004,22.8896906],[113.4840293,22.8895397],[113.4845496,22.8893451],[113.4847709,22.889255]]}},{"type":"Feature","id":"way/1154868950","properties":{"osmType":"way","osmId":1154868950,"featureClass":"road","highway":"service","bridge":"yes","layer":"1","osmNodeIds":[10740248582,10740248583]},"geometry":{"type":"LineString","coordinates":[[113.4830214,22.8901943],[113.4833835,22.8899423]]}},{"type":"Feature","id":"way/1154868951","properties":{"osmType":"way","osmId":1154868951,"featureClass":"road","highway":"service","osmNodeIds":[10740248570,10740248582]},"geometry":{"type":"LineString","coordinates":[[113.4828571,22.8903463],[113.4830214,22.8901943]]}},{"type":"Feature","id":"way/1154868952","properties":{"osmType":"way","osmId":1154868952,"featureClass":"road","highway":"service","osmNodeIds":[10740248581,11073090142,10740248589,10740248590,10740248591,10740248592,10740248593,10740248594,10740248595,11073090158,10740248596,11073090159,10740248597,10775863284,10740248598,11073090157,10740248599,10740248600]},"geometry":{"type":"LineString","coordinates":[[113.4827777,22.8905036],[113.4827825,22.8907191],[113.4827871,22.8909244],[113.4827567,22.8912508],[113.482681,22.8915803],[113.4825166,22.892047],[113.4822609,22.8925555],[113.4821256,22.8927962],[113.4818461,22.8932135],[113.4817735,22.893321],[113.481612,22.8934716],[113.4815086,22.8935535],[113.4811144,22.8937673],[113.4809308,22.893864],[113.4806139,22.8940466],[113.4805337,22.8940838],[113.4804465,22.8941136],[113.4795273,22.8942032]]}},{"type":"Feature","id":"way/1154868954","properties":{"osmType":"way","osmId":1154868954,"featureClass":"road","highway":"service","osmNodeIds":[10740248645,10740248646,10740248647,10740248648,10740248649,10740248650,10740248651,10740248634,10740248635,10740248636,10740248641,10057722423,10740248642,10740248643,10740248644,10740248637,10740248638,10740248639,10740248640,10740248645]},"geometry":{"type":"LineString","coordinates":[[113.4821211,22.8870211],[113.4821405,22.8870501],[113.4821486,22.88708],[113.4821461,22.8871124],[113.4821327,22.8871424],[113.4821097,22.8871671],[113.4820796,22.8871839],[113.4820452,22.8871912],[113.482007,22.8871873],[113.4819725,22.8871718],[113.4819458,22.8871463],[113.4819301,22.887114],[113.4819273,22.8870787],[113.4819377,22.8870446],[113.48196,22.8870158],[113.4819917,22.8869958],[113.4820257,22.8869872],[113.4820609,22.8869888],[113.4820938,22.8870005],[113.4821211,22.8870211]]}},{"type":"Feature","id":"way/1154868955","properties":{"osmType":"way","osmId":1154868955,"featureClass":"road","name":"内七路","highway":"service","osmNodeIds":[10740248567,11073090147,10740248652,10740248653,10740248768,10740248651]},"geometry":{"type":"LineString","coordinates":[[113.4827692,22.8903007],[113.482747,22.890079],[113.4826885,22.8894581],[113.4825192,22.8885756],[113.4822742,22.8877767],[113.4820796,22.8871839]]}},{"type":"Feature","id":"way/1154868957","properties":{"osmType":"way","osmId":1154868957,"featureClass":"road","name":"笃学路","name:en":"Duxue Road","highway":"tertiary","surface":"asphalt","osmNodeIds":[10740248681,10775863245,10775863244,10775863258,10740224602]},"geometry":{"type":"LineString","coordinates":[[113.4821971,22.8856726],[113.4818611,22.8858479],[113.4814742,22.8860497],[113.481307,22.886135],[113.4811161,22.8862093]]}},{"type":"Feature","id":"way/1154868958","properties":{"osmType":"way","osmId":1154868958,"featureClass":"road","highway":"tertiary_link","surface":"asphalt","osmNodeIds":[10740248633,10740248682,10740248677,10740248676,10740248675,10740248674,10740248673,10740248679,10740224602]},"geometry":{"type":"LineString","coordinates":[[113.4814401,22.8855918],[113.4814439,22.8856896],[113.4814379,22.8858052],[113.4814265,22.8858809],[113.4814015,22.88595],[113.4813417,22.8860436],[113.4812972,22.886081],[113.4812093,22.8861329],[113.4811161,22.8862093]]}},{"type":"Feature","id":"way/1154868960","properties":{"osmType":"way","osmId":1154868960,"featureClass":"road","name":"笃学路","name:en":"Duxue Road","highway":"tertiary","bridge":"yes","layer":"1","osmNodeIds":[10740248680,10740248681]},"geometry":{"type":"LineString","coordinates":[[113.4827453,22.8853822],[113.4821971,22.8856726]]}},{"type":"Feature","id":"way/1154868961","properties":{"osmType":"way","osmId":1154868961,"featureClass":"road","name":"三沙公路","highway":"tertiary","surface":"asphalt","osmNodeIds":[10740248686,11073090154,10740248682,10740248510,10740248687,11073095103,10740248688,10740248689,10740248690,13711695080,10740224599,11073095104,10740248691,11073095098,10740248692,10740248823]},"geometry":{"type":"LineString","coordinates":[[113.4821246,22.8855157],[113.4818301,22.8856018],[113.4814439,22.8856896],[113.4810457,22.8857427],[113.4804044,22.8857832],[113.4800635,22.8857831],[113.479676,22.8857639],[113.4792421,22.8857155],[113.4788357,22.8856314],[113.4761915,22.8849609],[113.4751622,22.8846999],[113.474232,22.8844651],[113.4737986,22.8843277],[113.4732884,22.8841633],[113.4728323,22.8839722],[113.4713669,22.883265]]}},{"type":"Feature","id":"way/1154868962","properties":{"osmType":"way","osmId":1154868962,"featureClass":"road","name":"三沙公路","highway":"tertiary","surface":"asphalt","osmNodeIds":[10740248824,10740248697,11073095099,10740248698,10740248699,10740248700,11073095100,10740248701,9696789383,10740248702,11073095101,9696789391,10740248703,10740248704,10740248705,11073095102,10740248706,10740248707,10740248633,10740248708]},"geometry":{"type":"LineString","coordinates":[[113.4714474,22.8831754],[113.4728837,22.8838884],[113.4733344,22.8840718],[113.4738423,22.8842234],[113.474463,22.8843689],[113.4753433,22.8845128],[113.4757436,22.884608],[113.4760706,22.8847057],[113.4762771,22.8847703],[113.4767402,22.8849576],[113.4773139,22.8851363],[113.4777201,22.8852426],[113.478886,22.8855415],[113.4793078,22.8856435],[113.4797155,22.8856705],[113.4801525,22.8856906],[113.4804127,22.8856827],[113.4811246,22.88565],[113.4814401,22.8855918],[113.4821069,22.885434]]}},{"type":"Feature","id":"way/1154868978","properties":{"osmType":"way","osmId":1154868978,"featureClass":"road","name":"内六路","highway":"service","osmNodeIds":[10740248565,11073090146,10740248754,10740248755,10775863267,10740248756]},"geometry":{"type":"LineString","coordinates":[[113.4826842,22.8904676],[113.4825296,22.8906026],[113.4820196,22.8910481],[113.4818291,22.8912005],[113.4807681,22.8917898],[113.4799748,22.8922111]]}},{"type":"Feature","id":"way/1154868979","properties":{"osmType":"way","osmId":1154868979,"featureClass":"road","name":"内五路","highway":"service","osmNodeIds":[10740248757,10775856871,10775856872,10740248758,10775856873,10740248759,10775856875,10775856876,10740248760,10775856877,10740248761,10775856878,10740248762,10775856879,10740248763,10740248764,10775856880,10740248765,10775856881,10740248756,10775856882,10775856883,10740248766]},"geometry":{"type":"LineString","coordinates":[[113.4779896,22.8889606],[113.478078,22.8890969],[113.4781607,22.8892159],[113.4782779,22.8893593],[113.4784296,22.8895171],[113.4785937,22.8896634],[113.4787845,22.8898456],[113.4789246,22.8899965],[113.4790479,22.8901468],[113.4791942,22.8903464],[113.4793293,22.8905662],[113.4794177,22.8907221],[113.4795123,22.8909091],[113.4795959,22.891123],[113.4796666,22.8913334],[113.4797462,22.8916397],[113.479787,22.8917877],[113.4798389,22.8919328],[113.4799017,22.8920741],[113.4799748,22.8922111],[113.4800359,22.8923099],[113.4803381,22.8927994],[113.4804477,22.8929586]]}},{"type":"Feature","id":"way/1154868980","properties":{"osmType":"way","osmId":1154868980,"featureClass":"road","name":"体育南路","highway":"service","osmNodeIds":[10740248759,10775856874,10740248772,10775863297,10740248767,10740248768]},"geometry":{"type":"LineString","coordinates":[[113.4785937,22.8896634],[113.4789551,22.8894445],[113.4800101,22.8888903],[113.4815293,22.888068],[113.4818525,22.8878931],[113.4822742,22.8877767]]}},{"type":"Feature","id":"way/1154868981","properties":{"osmType":"way","osmId":1154868981,"featureClass":"road","name":"体育西路","highway":"service","osmNodeIds":[10740248754,10740248769,10740248770,10740248771,10740248773,10775863285,10740248772]},"geometry":{"type":"LineString","coordinates":[[113.4820196,22.8910481],[113.4815869,22.8908858],[113.4809862,22.8904333],[113.480726,22.8900627],[113.480505,22.8897203],[113.4800537,22.8889589],[113.4800101,22.8888903]]}},{"type":"Feature","id":"way/1154868982","properties":{"osmType":"way","osmId":1154868982,"featureClass":"road","name":"体育北路","highway":"service","osmNodeIds":[10740248773,10740248774,10740248775,10740248776,10740248777,10740248653]},"geometry":{"type":"LineString","coordinates":[[113.480505,22.8897203],[113.4813536,22.8894153],[113.4816219,22.8892917],[113.4820081,22.8890298],[113.4823139,22.8887827],[113.4825192,22.8885756]]}},{"type":"Feature","id":"way/1154868983","properties":{"osmType":"way","osmId":1154868983,"featureClass":"road","name":"内三路","highway":"service","osmNodeIds":[10057722442,11073090153,10740248778]},"geometry":{"type":"LineString","coordinates":[[113.476228,22.8899134],[113.4758826,22.8900799],[113.4749324,22.8906098]]}},{"type":"Feature","id":"way/1154868984","properties":{"osmType":"way","osmId":1154868984,"featureClass":"road","name":"内四路","highway":"service","osmNodeIds":[10740248778,11073095006,10740248779,10775863314,10740248780,10740248781,11073090204,10775863315,10740248782,10775863316,10740248783,10775863317,13909959265,10740248784,13909959264,10775863318,10740248785,10740248786,10740248787,10740248788]},"geometry":{"type":"LineString","coordinates":[[113.4749324,22.8906098],[113.4750528,22.8907967],[113.4751595,22.8909845],[113.4752555,22.8911773],[113.4753403,22.8913745],[113.4754137,22.8915754],[113.4754756,22.8917797],[113.4755375,22.8919532],[113.4756141,22.892122],[113.4757011,22.8922864],[113.4757982,22.892446],[113.4759051,22.8926002],[113.4760213,22.8927485],[113.4761466,22.8928904],[113.4762806,22.8930255],[113.4764227,22.8931533],[113.4766521,22.8933498],[113.4769219,22.8936394],[113.4770169,22.8937799],[113.4774092,22.8943888]]}},{"type":"Feature","id":"way/1154868985","properties":{"osmType":"way","osmId":1154868985,"featureClass":"road","name":"内二路","highway":"service","osmNodeIds":[10740248788,10775863276,11073090140,10775863277,11073090139,10775863278,11073090141,13909959272,10775856884,10740248766,10775856885,10775863268,10740248789,10740248790,10740248791,10740248792,10740248593,10740248793]},"geometry":{"type":"LineString","coordinates":[[113.4774092,22.8943888],[113.4774574,22.8944626],[113.4774865,22.894483],[113.4775225,22.8944983],[113.4775655,22.8944952],[113.4776086,22.8944852],[113.4792024,22.8936417],[113.4793592,22.8935566],[113.4803575,22.8930148],[113.4804477,22.8929586],[113.4806504,22.8928493],[113.4812258,22.8925392],[113.4814397,22.8924369],[113.4815949,22.8923917],[113.4817736,22.8923836],[113.481912,22.8924053],[113.4822609,22.8925555],[113.4825147,22.8926873]]}},{"type":"Feature","id":"way/1154868986","properties":{"osmType":"way","osmId":1154868986,"featureClass":"road","highway":"service","osmNodeIds":[10740248796,11073090156,10740248797]},"geometry":{"type":"LineString","coordinates":[[113.4829412,22.8930441],[113.4835017,22.8940849],[113.4836012,22.8942696]]}},{"type":"Feature","id":"way/1154868987","properties":{"osmType":"way","osmId":1154868987,"featureClass":"road","highway":"service","bridge":"yes","layer":"1","osmNodeIds":[10740248793,10740248794,13909951899,10740248795,13909951898,10740248796]},"geometry":{"type":"LineString","coordinates":[[113.4825147,22.8926873],[113.4826152,22.8927415],[113.4827091,22.892805],[113.4827953,22.8928772],[113.482873,22.8929571],[113.4829412,22.8930441]]}},{"type":"Feature","id":"way/1154868989","properties":{"osmType":"way","osmId":1154868989,"featureClass":"road","highway":"service","access":"permissive","osmNodeIds":[10740248757,10740248820,11073090124]},"geometry":{"type":"LineString","coordinates":[[113.4779896,22.8889606],[113.4777563,22.8885946],[113.4777151,22.8885208]]}},{"type":"Feature","id":"way/1154868992","properties":{"osmType":"way","osmId":1154868992,"featureClass":"road","name":"三沙公路","highway":"tertiary","surface":"asphalt","bridge":"yes","layer":"1","osmNodeIds":[10740248685,10740248686]},"geometry":{"type":"LineString","coordinates":[[113.4827228,22.8852976],[113.4821246,22.8855157]]}},{"type":"Feature","id":"way/1158733821","properties":{"osmType":"way","osmId":1158733821,"featureClass":"road","highway":"service","service":"parking_aisle","osmNodeIds":[10740248773,10775856887,13909959492,13909959491]},"geometry":{"type":"LineString","coordinates":[[113.480505,22.8897203],[113.4803101,22.8898281],[113.4808953,22.8907258],[113.4811137,22.8910609]]}},{"type":"Feature","id":"way/1158733822","properties":{"osmType":"way","osmId":1158733822,"featureClass":"road","highway":"service","service":"parking_aisle","osmNodeIds":[13909959489,13909959486]},"geometry":{"type":"LineString","coordinates":[[113.4808315,22.891217],[113.4806131,22.890882]]}},{"type":"Feature","id":"way/1158733823","properties":{"osmType":"way","osmId":1158733823,"featureClass":"road","highway":"service","service":"parking_aisle","osmNodeIds":[13909959490,13909959485]},"geometry":{"type":"LineString","coordinates":[[113.4807068,22.8912861],[113.4804883,22.890951]]}},{"type":"Feature","id":"way/1158733824","properties":{"osmType":"way","osmId":1158733824,"featureClass":"road","highway":"service","service":"parking_aisle","osmNodeIds":[10775856892,13909959490,13909959489,13909959488]},"geometry":{"type":"LineString","coordinates":[[113.480582,22.8913551],[113.4807068,22.8912861],[113.4808315,22.891217],[113.4809563,22.891148]]}},{"type":"Feature","id":"way/1158733826","properties":{"osmType":"way","osmId":1158733826,"featureClass":"road","highway":"service","service":"parking_aisle","osmNodeIds":[10775863246,10775863247,10775863248,10775863249,10775863250,10775863251,10775863252,10775863253,10775863254,10775863255,10775863256,10775863257]},"geometry":{"type":"LineString","coordinates":[[113.482071,22.886314],[113.4820398,22.88623],[113.4820119,22.8861998],[113.4819806,22.8861754],[113.4819314,22.8861602],[113.4818606,22.8861677],[113.4817267,22.8862282],[113.4816202,22.8862964],[113.4815216,22.8863347],[113.4814632,22.886325],[113.4814215,22.8863073],[113.4813826,22.8862598]]}},{"type":"Feature","id":"way/1158733827","properties":{"osmType":"way","osmId":1158733827,"featureClass":"road","highway":"service","service":"parking_aisle","osmNodeIds":[10775863267,10775863268]},"geometry":{"type":"LineString","coordinates":[[113.4807681,22.8917898],[113.4812258,22.8925392]]}},{"type":"Feature","id":"way/1158733829","properties":{"osmType":"way","osmId":1158733829,"featureClass":"road","highway":"service","osmNodeIds":[10740248766,10775863280,10775863281,10775863282,10775863283,10775863284]},"geometry":{"type":"LineString","coordinates":[[113.4804477,22.8929586],[113.4804995,22.893053],[113.4805493,22.8931548],[113.4806259,22.8933062],[113.4807047,22.8934553],[113.4809308,22.893864]]}},{"type":"Feature","id":"way/1158733830","properties":{"osmType":"way","osmId":1158733830,"featureClass":"road","highway":"footway","osmNodeIds":[10775863285,10775863286,10775863287,10775863288,10775863289,10775863290,10775863291,10775863292,10775863293,10775863294,10775863295,10775863296,10775863297]},"geometry":{"type":"LineString","coordinates":[[113.4800537,22.8889589],[113.4802275,22.8888627],[113.4803254,22.8888158],[113.4804748,22.8887626],[113.4805718,22.8887442],[113.4806812,22.8887214],[113.4808068,22.8886853],[113.4809993,22.8886207],[113.4811811,22.8885412],[113.4812997,22.8884653],[113.4813937,22.888378],[113.4814684,22.8882538],[113.4815293,22.888068]]}},{"type":"Feature","id":"way/1158733833","properties":{"osmType":"way","osmId":1158733833,"featureClass":"road","name":"内一路","highway":"service","osmNodeIds":[10775863302,10775863303,10775863304,10775863305,10775863306,10775863307,10775863308,10775863309,10775863310,10775863311,10775863312,10775863313,10740248787]},"geometry":{"type":"LineString","coordinates":[[113.4735861,22.8953335],[113.4739369,22.895303],[113.4741643,22.8952678],[113.4744114,22.8952146],[113.4747113,22.8951117],[113.4749929,22.8949843],[113.4752281,22.8948579],[113.4755652,22.8946371],[113.4759642,22.8943754],[113.4763215,22.8941656],[113.4766157,22.8940079],[113.4768387,22.8938885],[113.4770169,22.8937799]]}},{"type":"Feature","id":"way/1158733834","properties":{"osmType":"way","osmId":1158733834,"featureClass":"road","highway":"service","osmNodeIds":[10740248785,10775863319]},"geometry":{"type":"LineString","coordinates":[[113.4766521,22.8933498],[113.477272,22.8927931]]}},{"type":"Feature","id":"way/1192908727","properties":{"osmType":"way","osmId":1192908727,"featureClass":"road","highway":"service","access":"permissive","osmNodeIds":[10740248816,10763132989,11073090128,11073090124]},"geometry":{"type":"LineString","coordinates":[[113.4775325,22.8881229],[113.4776815,22.8883663],[113.4777049,22.8884435],[113.4777151,22.8885208]]}},{"type":"Feature","id":"way/1192908728","properties":{"osmType":"way","osmId":1192908728,"featureClass":"road","highway":"service","access":"permissive","osmNodeIds":[11073090124,11073090127,11073090125,11073090126]},"geometry":{"type":"LineString","coordinates":[[113.4777151,22.8885208],[113.477641,22.8884714],[113.477586,22.8884048],[113.4774299,22.8881743]]}},{"type":"Feature","id":"way/1192908729","properties":{"osmType":"way","osmId":1192908729,"featureClass":"road","highway":"service","osmNodeIds":[11073090129,11073090136,11073090138,11073090135,11073090134,11073090137,11073090133,11073090132,10775863241,10740248820]},"geometry":{"type":"LineString","coordinates":[[113.4771746,22.8891762],[113.4771259,22.8891147],[113.4770914,22.8890574],[113.4770818,22.8890258],[113.4770818,22.8889903],[113.477092,22.888959],[113.4771138,22.8889351],[113.4772272,22.888874],[113.4775035,22.8887291],[113.4777563,22.8885946]]}},{"type":"Feature","id":"way/1192908730","properties":{"osmType":"way","osmId":1192908730,"featureClass":"road","highway":"service","osmNodeIds":[11073090142,11073090143,11073090144,11073090145,11073090146]},"geometry":{"type":"LineString","coordinates":[[113.4827825,22.8907191],[113.4827612,22.8906465],[113.4826979,22.8906069],[113.4826156,22.8905872],[113.4825296,22.8906026]]}},{"type":"Feature","id":"way/1192908731","properties":{"osmType":"way","osmId":1192908731,"featureClass":"road","highway":"service","osmNodeIds":[11073090147,11073090148,11073090149,11073090150,11073090151,11073090152,10740248582]},"geometry":{"type":"LineString","coordinates":[[113.482747,22.890079],[113.4827955,22.8901449],[113.4828217,22.8901741],[113.4828589,22.8901969],[113.4829237,22.8902058],[113.4829892,22.890202],[113.4830214,22.8901943]]}},{"type":"Feature","id":"way/1192908732","properties":{"osmType":"way","osmId":1192908732,"featureClass":"road","highway":"service","access":"no","osmNodeIds":[10740248646,11073090155]},"geometry":{"type":"LineString","coordinates":[[113.4821405,22.8870501],[113.4821862,22.8870382]]}},{"type":"Feature","id":"way/1192908733","properties":{"osmType":"way","osmId":1192908733,"featureClass":"road","highway":"footway","osmNodeIds":[11073090160,11073090165,11073090161]},"geometry":{"type":"LineString","coordinates":[[113.4760055,22.8889333],[113.4761253,22.889114],[113.4764596,22.8896168]]}},{"type":"Feature","id":"way/1192908734","properties":{"osmType":"way","osmId":1192908734,"featureClass":"road","highway":"footway","osmNodeIds":[11073090162,11073090164,11073090163]},"geometry":{"type":"LineString","coordinates":[[113.4758975,22.8889906],[113.4760112,22.8891642],[113.4763453,22.8896756]]}},{"type":"Feature","id":"way/1192908740","properties":{"osmType":"way","osmId":1192908740,"featureClass":"road","highway":"path","surface":"concrete","osmNodeIds":[11073090198,11073090199,11073090200,11073090201,11073090202,11073090203,4809858136]},"geometry":{"type":"LineString","coordinates":[[113.4742141,22.8887572],[113.4741759,22.888745],[113.4741491,22.8887411],[113.4740376,22.8887866],[113.4736975,22.8889244],[113.4734506,22.8890219],[113.4730765,22.8890957]]}},{"type":"Feature","id":"way/1192908741","properties":{"osmType":"way","osmId":1192908741,"featureClass":"road","highway":"service","access":"no","osmNodeIds":[11073090204,11073095005]},"geometry":{"type":"LineString","coordinates":[[113.4754756,22.8917797],[113.4753651,22.8918117]]}},{"type":"Feature","id":"way/1192908742","properties":{"osmType":"way","osmId":1192908742,"featureClass":"road","highway":"service","access":"no","osmNodeIds":[11073095006,11073095007]},"geometry":{"type":"LineString","coordinates":[[113.4750528,22.8907967],[113.4749584,22.8908515]]}},{"type":"Feature","id":"way/1383063343","properties":{"osmType":"way","osmId":1383063343,"featureClass":"road","highway":"tertiary_link","osmNodeIds":[12804902696,12804948601,12804902697,12804902698,12804902699,13909951829,12804902700,13909951828,10775863263]},"geometry":{"type":"LineString","coordinates":[[113.4741029,22.8893539],[113.4740842,22.889429],[113.4740847,22.889506],[113.4741043,22.8895809],[113.4741419,22.8896497],[113.4741955,22.8897088],[113.4742624,22.889755],[113.474339,22.8897859],[113.4744212,22.8897999]]}},{"type":"Feature","id":"way/1383063344","properties":{"osmType":"way","osmId":1383063344,"featureClass":"road","highway":"service","surface":"concrete","osmNodeIds":[10740248511,12804948602]},"geometry":{"type":"LineString","coordinates":[[113.4743502,22.8888165],[113.4742533,22.8887743]]}},{"type":"Feature","id":"way/1383063345","properties":{"osmType":"way","osmId":1383063345,"featureClass":"road","highway":"steps","surface":"concrete","osmNodeIds":[12804948602,11073090198]},"geometry":{"type":"LineString","coordinates":[[113.4742533,22.8887743],[113.4742141,22.8887572]]}},{"type":"Feature","id":"way/1384828043","properties":{"osmType":"way","osmId":1384828043,"featureClass":"road","highway":"service","osmNodeIds":[12821543352,10740248603,12821543353]},"geometry":{"type":"LineString","coordinates":[[113.4795035,22.8881547],[113.479091,22.8874504],[113.4790124,22.8873261]]}},{"type":"Feature","id":"way/1384828046","properties":{"osmType":"way","osmId":1384828046,"featureClass":"road","highway":"service","osmNodeIds":[10775863257,10775863258]},"geometry":{"type":"LineString","coordinates":[[113.4813826,22.8862598],[113.481307,22.886135]]}},{"type":"Feature","id":"way/1384828047","properties":{"osmType":"way","osmId":1384828047,"featureClass":"road","highway":"service","osmNodeIds":[10740248600,12821543360,13909959283,13909959281,13909959280,12821543361,13909959279,13909959278,13909959282,12821543362,13909959277,12821543363,12821543364,13909959276,12821543365,13909959275,13909959274,12821543366,13909959273,12821543367,12821543368,12821543369,12821543370,10740248596]},"geometry":{"type":"LineString","coordinates":[[113.4795273,22.8942032],[113.4795294,22.8942763],[113.4795422,22.8943484],[113.4795657,22.8944183],[113.4795992,22.8944845],[113.4796423,22.8945459],[113.4796941,22.8946013],[113.4797546,22.8946484],[113.4798303,22.8946908],[113.4799141,22.8947173],[113.4800021,22.8947266],[113.4800902,22.8947183],[113.4802781,22.8946721],[113.4804708,22.8946481],[113.4806653,22.8946466],[113.4807458,22.8946413],[113.4808232,22.8946202],[113.4808938,22.8945843],[113.4809544,22.8945351],[113.4810021,22.8944752],[113.481219,22.8941706],[113.4813591,22.8939813],[113.4814899,22.8938007],[113.481612,22.8934716]]}},{"type":"Feature","id":"way/1384828048","properties":{"osmType":"way","osmId":1384828048,"featureClass":"road","name":"红鸟广场","highway":"pedestrian","osmNodeIds":[12821543383,12821543384,12821543385,12821543386,12821543387,12821543388,12821543389,12821543371,12821543372,12821543373,12821543378,12821543379,12821543380,12821543382,12821543374,12821543375,12821543376,12821543377,12821543383]},"geometry":{"type":"LineString","coordinates":[[113.4767409,22.8899859],[113.4767039,22.8900349],[113.4766508,22.8900693],[113.4765883,22.8900849],[113.4765236,22.8900799],[113.4764648,22.8900547],[113.4764189,22.8900126],[113.4763913,22.8899585],[113.4763855,22.889899],[113.4764021,22.8898413],[113.4764392,22.8897923],[113.4764922,22.8897579],[113.4765548,22.8897423],[113.4766194,22.8897474],[113.4766783,22.8897725],[113.4767242,22.8898146],[113.4767518,22.8898687],[113.4767576,22.8899282],[113.4767409,22.8899859]]}},{"type":"Feature","id":"way/1526136006","properties":{"osmType":"way","osmId":1526136006,"featureClass":"road","name":"盛学路","name:en":"Shengxue Road","highway":"tertiary","access":"no","osmNodeIds":[13909951830,8310636253]},"geometry":{"type":"LineString","coordinates":[[113.4747681,22.8879385],[113.475598,22.886195]]}},{"type":"Feature","id":"way/1526136007","properties":{"osmType":"way","osmId":1526136007,"featureClass":"road","name":"盛学路","name:en":"Shengxue Road","highway":"tertiary","access":"no","bridge":"yes","layer":"1","osmNodeIds":[13909951831,13909951830]},"geometry":{"type":"LineString","coordinates":[[113.4746387,22.8882103],[113.4747681,22.8879385]]}},{"type":"Feature","id":"way/1526136015","properties":{"osmType":"way","osmId":1526136015,"featureClass":"road","highway":"service","osmNodeIds":[13909959272,13909959271,13909959269,13909959270,13909959268,13909959267,13909959266,10740248600]},"geometry":{"type":"LineString","coordinates":[[113.4793592,22.8935566],[113.4795052,22.8937792],[113.4795328,22.8938496],[113.4795508,22.8939225],[113.4795585,22.8939932],[113.4795572,22.8940641],[113.4795467,22.8941345],[113.4795273,22.8942032]]}},{"type":"Feature","id":"way/1526136026","properties":{"osmType":"way","osmId":1526136026,"featureClass":"road","highway":"service","service":"parking_aisle","osmNodeIds":[13909959488,13909959487]},"geometry":{"type":"LineString","coordinates":[[113.4809563,22.891148],[113.4807378,22.8908129]]}},{"type":"Feature","id":"way/1526136027","properties":{"osmType":"way","osmId":1526136027,"featureClass":"road","highway":"service","service":"parking_aisle","osmNodeIds":[10775856886,10775856892]},"geometry":{"type":"LineString","coordinates":[[113.4803636,22.89102],[113.480582,22.8913551]]}},{"type":"Feature","id":"way/1526136028","properties":{"osmType":"way","osmId":1526136028,"featureClass":"road","highway":"service","service":"parking_aisle","osmNodeIds":[13909959492,13909959487,13909959486,13909959485,10775856886]},"geometry":{"type":"LineString","coordinates":[[113.4808953,22.8907258],[113.4807378,22.8908129],[113.4806131,22.890882],[113.4804883,22.890951],[113.4803636,22.89102]]}},{"type":"Feature","id":"way/188987225","properties":{"osmType":"way","osmId":188987225,"featureClass":"road","name":"广澳高速","ref":"G0425;G1508","highway":"motorway","surface":"asphalt","bridge":"yes","layer":"1","osmNodeIds":[1996234366,1996234367,1996234368,1996234370]},"geometry":{"type":"LineString","coordinates":[[113.4767637,22.8817568],[113.4750408,22.8843445],[113.4740109,22.8860314],[113.4733555,22.8872694]]}},{"type":"Feature","id":"way/488693948","properties":{"osmType":"way","osmId":488693948,"featureClass":"road","name":"群益路","highway":"residential","osmNodeIds":[10740224599,4809858124,5233430016,4809858125,4809858126,5233429947]},"geometry":{"type":"LineString","coordinates":[[113.4751622,22.8846999],[113.4746422,22.8856773],[113.4745569,22.8858162],[113.4742501,22.8863154],[113.474049,22.8865589],[113.4739394,22.8866658]]}},{"type":"Feature","id":"way/894157084","properties":{"osmType":"way","osmId":894157084,"featureClass":"road","name":"笃学路","name:en":"Duxue Road","highway":"tertiary","surface":"asphalt","osmNodeIds":[10740224602,12821543353,11073090166,10740248816,11073090126,11073090160,11073090162,10009636351]},"geometry":{"type":"LineString","coordinates":[[113.4811161,22.8862093],[113.4790124,22.8873261],[113.4782969,22.8877102],[113.4775325,22.8881229],[113.4774299,22.8881743],[113.4760055,22.8889333],[113.4758975,22.8889906],[113.4752461,22.8893529]]}},{"type":"Feature","id":"way/894157085","properties":{"osmType":"way","osmId":894157085,"featureClass":"road","name":"盛学路","name:en":"Shengxue Road","highway":"tertiary","osmNodeIds":[11073090194,12969488344,11073090193,11073090192,11073090173,11073090174,12969488345,11073090191,12969488348,11073090190,11073090189,11073090188,11073090187,11073090186,11073090185,11073090184,11073090183,11073090182,12969488349,11073090181,11073090180,11073090179,11073090178,11073090177,11073090176,12969488351,10740248512,12804902696,10740248511,13909951831]},"geometry":{"type":"LineString","coordinates":[[113.4727812,22.896538],[113.4727497,22.8962685],[113.4727266,22.8960701],[113.4726924,22.8955186],[113.472691,22.8953643],[113.4726905,22.8953124],[113.4726876,22.8950018],[113.4726753,22.8936682],[113.4726819,22.893603],[113.4726899,22.8935242],[113.4727388,22.8933958],[113.472839,22.8932473],[113.4730052,22.8930942],[113.4731933,22.8929186],[113.4732911,22.8927836],[113.4733644,22.8926012],[113.4733766,22.8924144],[113.473357,22.8922793],[113.4732827,22.8920505],[113.4732715,22.8920159],[113.4732031,22.8917953],[113.4731811,22.89155],[113.4731958,22.8913811],[113.4732324,22.8911943],[113.4732985,22.8910231],[113.473457,22.8907012],[113.4738065,22.8899917],[113.4741029,22.8893539],[113.4743502,22.8888165],[113.4746387,22.8882103]]}},{"type":"Feature","id":"way/1526136013","properties":{"osmType":"way","osmId":1526136013,"featureClass":"water","natural":"water","water":"river"},"geometry":{"type":"Polygon","coordinates":[[[113.4803098,22.8962649],[113.4804461,22.8961908],[113.4806049,22.8961043],[113.4805155,22.89604],[113.4804318,22.8959695],[113.4803543,22.8958932],[113.4802835,22.8958115],[113.4802198,22.8957251],[113.4801637,22.8956343],[113.4801397,22.8955532],[113.4801461,22.8954694],[113.480182,22.8953921],[113.4802435,22.89533],[113.4803777,22.8952407],[113.480434,22.8952105],[113.4804952,22.89519],[113.480561,22.8951798],[113.4808294,22.8951511],[113.4809798,22.895094],[113.4811151,22.8950109],[113.4812302,22.894905],[113.4813205,22.8947804],[113.4813612,22.89469],[113.4818044,22.8940669],[113.4819068,22.8938932],[113.4820185,22.8937735],[113.4821828,22.8936589],[113.4824629,22.8934533],[113.4825871,22.8933245],[113.4826933,22.8932039],[113.4827934,22.893079],[113.4828873,22.8929501],[113.4829747,22.8928174],[113.4830556,22.8926812],[113.4831388,22.8925246],[113.4832567,22.89213],[113.4835161,22.8914831],[113.4835626,22.8913885],[113.483636,22.8913097],[113.4837305,22.891253],[113.4837645,22.8911131],[113.4836572,22.8908758],[113.4837699,22.8907721],[113.4838235,22.8905769],[113.4836986,22.8904194],[113.4836013,22.8903607],[113.4835161,22.8902877],[113.4834454,22.8902026],[113.4833913,22.8901077],[113.4833553,22.8900058],[113.4833383,22.8898997],[113.4832342,22.888885],[113.4830927,22.8879815],[113.4829166,22.8870831],[113.4823497,22.8849331],[113.4823537,22.8848465],[113.4823626,22.8847644],[113.4823661,22.8846819],[113.4823644,22.8845994],[113.4823535,22.8844876],[113.4823329,22.884377],[113.4823027,22.8842683],[113.4821659,22.883826],[113.4821097,22.8836496],[113.4820813,22.8834677],[113.4820812,22.8832839],[113.4821096,22.8831019],[113.4821397,22.8830133],[113.4821887,22.882932],[113.4822545,22.8828616],[113.4823344,22.882805],[113.4824251,22.8827643],[113.4825229,22.8827415],[113.4814124,22.882643],[113.4816268,22.8827461],[113.4817069,22.8828116],[113.4817632,22.8828956],[113.4817909,22.8829909],[113.4817877,22.8830896],[113.4817692,22.8832633],[113.4817692,22.8834883],[113.481804,22.8837109],[113.4818662,22.8839059],[113.4820015,22.8843433],[113.4820275,22.8844371],[113.4820439,22.8845248],[113.4820527,22.884615],[113.482054,22.884679],[113.4820512,22.8847444],[113.4820423,22.8848261],[113.482036,22.8849615],[113.4826112,22.8871426],[113.4826578,22.8873803],[113.4827847,22.8880275],[113.4829243,22.8889191],[113.4830285,22.8899342],[113.4830504,22.8900717],[113.4831028,22.8902198],[113.483111,22.8902343],[113.4831815,22.8903578],[113.4833372,22.8906821],[113.4833692,22.8907795],[113.4833838,22.8908804],[113.4833809,22.8909821],[113.4833605,22.891082],[113.483323,22.8911778],[113.4829778,22.8920479],[113.4828641,22.8924288],[113.4827958,22.8925573],[113.4827213,22.8926828],[113.4826407,22.892805],[113.4826094,22.892848],[113.4825541,22.8929238],[113.4824619,22.8930389],[113.4823641,22.89315],[113.4822609,22.893257],[113.4820033,22.8934461],[113.481817,22.8935761],[113.4816647,22.8937393],[113.4815531,22.8939285],[113.4811014,22.8945635],[113.4810613,22.8946528],[113.481003,22.8947331],[113.4809288,22.8948014],[113.4808415,22.894855],[113.4807446,22.8948918],[113.4805368,22.8949103],[113.4804204,22.8949284],[113.4803094,22.8949654],[113.4802074,22.8950202],[113.4801178,22.895091],[113.4800348,22.8951222],[113.4799455,22.8951297],[113.4798577,22.8951129],[113.479779,22.8950732],[113.4797163,22.8950141],[113.4792625,22.8942892],[113.4791867,22.8943295],[113.4791109,22.8943698],[113.4795451,22.8950832],[113.4796232,22.895287],[113.4796684,22.895499],[113.4797206,22.8956751],[113.4798005,22.895842],[113.4799065,22.8959962],[113.4800363,22.896134],[113.480096,22.8961803],[113.4801625,22.8962181],[113.4802343,22.8962465],[113.4803098,22.8962649]]]}},{"type":"Feature","id":"way/1526136014","properties":{"osmType":"way","osmId":1526136014,"featureClass":"water","natural":"water","water":"river"},"geometry":{"type":"Polygon","coordinates":[[[113.4740028,22.8909294],[113.4740436,22.8908521],[113.4740998,22.8907836],[113.4741693,22.8907263],[113.4747357,22.890355],[113.4748589,22.8902536],[113.4749662,22.8901244],[113.4750453,22.889979],[113.4750934,22.8898225],[113.4751089,22.8896604],[113.4750911,22.8894985],[113.4750401,22.8893409],[113.4750086,22.8892398],[113.4749902,22.8891361],[113.4749852,22.8890311],[113.4749937,22.8889262],[113.4750723,22.8886705],[113.4750967,22.8885786],[113.4750943,22.8885],[113.4750654,22.888426],[113.4735398,22.886156],[113.4733736,22.8862501],[113.4747018,22.8882453],[113.4747457,22.8883501],[113.4747601,22.8884615],[113.4747442,22.8885729],[113.4747066,22.8887219],[113.4746708,22.8888763],[113.4746595,22.8890339],[113.474673,22.8891913],[113.4747108,22.8893452],[113.4747682,22.889444],[113.4748028,22.8895511],[113.4748151,22.8896622],[113.4748045,22.8897735],[113.4747714,22.889881],[113.4747171,22.8899809],[113.4746434,22.8900696],[113.4745529,22.8901441],[113.4739917,22.890512],[113.4739349,22.8905549],[113.4738828,22.8906025],[113.4738358,22.8906545],[113.4737945,22.8907103],[113.4737591,22.8907696],[113.47373,22.8908317],[113.4735024,22.8914363],[113.4734777,22.8915412],[113.4734777,22.8916443],[113.4735491,22.8922505],[113.4735878,22.892468],[113.4736585,22.8926785],[113.4737598,22.8928781],[113.4738633,22.8930655],[113.473935,22.8932652],[113.4739732,22.8934726],[113.4739771,22.8936828],[113.4739468,22.8940728],[113.4739065,22.8942514],[113.4738232,22.8944169],[113.4737021,22.8945613],[113.473573,22.8947052],[113.4734658,22.8948636],[113.4733825,22.8950337],[113.4731941,22.8955773],[113.4729123,22.8965131],[113.4730309,22.8971514],[113.4731942,22.8965851],[113.4734745,22.8956543],[113.4736561,22.8951304],[113.4737244,22.8949908],[113.4738109,22.894863],[113.4739307,22.8947296],[113.4740748,22.8945577],[113.474186,22.8943366],[113.4742372,22.8941101],[113.4742699,22.8936902],[113.4742653,22.8934475],[113.4742197,22.8932],[113.4741341,22.8929616],[113.4740228,22.8927599],[113.473932,22.8925811],[113.4738732,22.8924061],[113.4738399,22.8922215],[113.4737703,22.8916297],[113.4737703,22.89157],[113.4737846,22.8915093],[113.4740028,22.8909294]]]}},{"type":"Feature","id":"way/1055287595","properties":{"osmType":"way","osmId":1055287595,"featureClass":"waterway","waterway":"river"},"geometry":{"type":"LineString","coordinates":[[113.4821357,22.897432],[113.4813652,22.8968082],[113.4810147,22.8965349],[113.4804461,22.8961908],[113.4799421,22.8956547],[113.4798271,22.8952728],[113.4796307,22.8950487],[113.4791867,22.8943295]]}},{"type":"Feature","id":"way/490162965","properties":{"osmType":"way","osmId":490162965,"featureClass":"waterway","waterway":"canal"},"geometry":{"type":"LineString","coordinates":[[113.4748316,22.8891637],[113.4748224,22.8890325],[113.4748323,22.8889013],[113.4749083,22.8886217],[113.4749284,22.8885201],[113.4749056,22.888388],[113.4734567,22.8862031],[113.472328,22.8850885],[113.4708306,22.8837467],[113.469969,22.8830006],[113.4693287,22.8824209],[113.4686796,22.8820033],[113.4680075,22.8816234],[113.4672224,22.8811387],[113.4668633,22.8808009],[113.4667732,22.8806453],[113.4664764,22.8797969],[113.4664011,22.8797215],[113.4663015,22.8796482],[113.4662183,22.8796349],[113.465987,22.8797116],[113.4631939,22.8811907]]}},{"type":"Feature","id":"way/540978525","properties":{"osmType":"way","osmId":540978525,"featureClass":"waterway","name":"四龙涌","waterway":"river"},"geometry":{"type":"LineString","coordinates":[[113.4798271,22.8952728],[113.4801132,22.8952303],[113.4802813,22.8951154],[113.4804495,22.8950375],[113.4806368,22.8949802],[113.4808094,22.8949611],[113.4810091,22.8948933],[113.4811846,22.8947539],[113.4819236,22.8936359],[113.482632,22.8931039],[113.4831107,22.8922036],[113.4835294,22.8910587],[113.4835431,22.8908564],[113.4835283,22.8906728],[113.4834483,22.8904813],[113.4833104,22.8902233],[113.4831834,22.889917],[113.4831389,22.8893951],[113.4830793,22.888902],[113.4830133,22.8884527],[113.4829387,22.8880045],[113.4828556,22.887558],[113.4827639,22.8871128],[113.4821929,22.8849473],[113.4821521,22.8843058],[113.4820161,22.8838659],[113.4819826,22.8837713],[113.4819562,22.8836748],[113.4819371,22.8835769],[113.4819252,22.883478],[113.4819208,22.8833821],[113.4819233,22.8832861],[113.4819326,22.8831906],[113.4819487,22.8830957],[113.4818924,22.8826002]]}},{"type":"Feature","id":"way/541145919","properties":{"osmType":"way","osmId":541145919,"featureClass":"waterway","name":"占田涌","waterway":"river"},"geometry":{"type":"LineString","coordinates":[[113.4721389,22.8987731],[113.472273,22.8985221],[113.4723543,22.8983162],[113.4727402,22.8970365],[113.4729716,22.8968323],[113.4733343,22.8956158],[113.4735193,22.8950821],[113.4735544,22.8950035],[113.4735951,22.8949272],[113.4736425,22.8948517],[113.4736953,22.8947794],[113.4737534,22.8947105],[113.4738164,22.8946455],[113.4738757,22.8945834],[113.4739288,22.8945166],[113.4739751,22.8944458],[113.4740144,22.8943714],[113.4740463,22.894294],[113.474067,22.8942276],[113.4740823,22.8941599],[113.474092,22.8940914],[113.4741235,22.8936865],[113.4741259,22.8935722],[113.474119,22.893458],[113.4741027,22.8933446],[113.4740773,22.8932326],[113.4740425,22.8931217],[113.4739987,22.8930136],[113.473939,22.8929218],[113.473885,22.8928271],[113.4738371,22.8927296],[113.4737952,22.8926298],[113.4737614,22.8925334],[113.4737333,22.8924354],[113.4737109,22.8923362],[113.4736945,22.892236],[113.473624,22.8915556],[113.4738664,22.8908805],[113.4738901,22.8908298],[113.4739189,22.8907814],[113.4739527,22.8907357],[113.4739912,22.8906932],[113.4740339,22.8906542],[113.4740805,22.8906192],[113.4746443,22.8902495],[113.4747091,22.8901998],[113.4747678,22.890144],[113.4748198,22.8900827],[113.4748643,22.8900167],[113.4749009,22.8899467],[113.4749293,22.8898736],[113.474949,22.889798],[113.474959,22.8897298],[113.474962,22.889661],[113.474958,22.8895923],[113.4749469,22.8895242],[113.4749289,22.8894574],[113.4749041,22.8893924],[113.4748597,22.8892925],[113.4748316,22.8891637]]}}]}
